start=new Date('2022-02-22T00:00:00.000Z').valueOf();
sats=[{"GP_ID":"196569960","LAUNCH_DATE":"2020-01-29","REV_AT_EPOCH":"11412","OBJECT_NAME":"STARLINK-1160","ELEMENT_SET_NO":"999","MEAN_ANOMALY":"311.9077","SEMIMAJOR_AXIS":"6925.354","TIME_SYSTEM":"UTC","OBJECT_ID":"2020-006AQ","SITE":"AFETR","TLE_LINE1":"1 45082U 20006AQ  22052.73431999 -.00000483  00000-0 -13484-4 0  9994","ARG_OF_PERICENTER":"48.2087","EPHEMERIS_TYPE":"0","APOAPSIS":"548.638","DECAY_DATE":null,"NORAD_CAT_ID":"45082","CLASSIFICATION_TYPE":"U","BSTAR":"-0.00001348400000","MEAN_MOTION_DDOT":"0.0000000000000","ECCENTRICITY":"0.00020490","OBJECT_TYPE":"PAYLOAD","REF_FRAME":"TEME","PERIAPSIS":"545.800","PERIOD":"95.592","EPOCH":"2022-02-21T17:37:25.247136","MEAN_MOTION":"15.06398286","RCS_SIZE":"LARGE","TLE_LINE2":"2 45082  53.0558  56.9216 0002049  48.2087 311.9077 15.06398286114125","COUNTRY_CODE":"US","CENTER_NAME":"EARTH","RA_OF_ASC_NODE":"56.9216","MEAN_MOTION_DOT":"-0.00000483","INCLINATION":"53.0558","FILE":"3312023","MEAN_ELEMENT_THEORY":"SGP4"},{"SEMIMAJOR_AXIS":"6925.335","TIME_SYSTEM":"UTC","OBJECT_ID":"2020-006AR","MEAN_ANOMALY":"300.7644","ELEMENT_SET_NO":"999","LAUNCH_DATE":"2020-01-29","OBJECT_NAME":"STARLINK-1190","REV_AT_EPOCH":"11385","GP_ID":"196570209","PERIAPSIS":"546.174","OBJECT_TYPE":"PAYLOAD","REF_FRAME":"TEME","ECCENTRICITY":"0.00014810","MEAN_MOTION_DDOT":"0.0000000000000","NORAD_CAT_ID":"45083","DECAY_DATE":null,"CLASSIFICATION_TYPE":"U","BSTAR":"0.00012880000000","APOAPSIS":"548.226","EPHEMERIS_TYPE":"0","ARG_OF_PERICENTER":"59.3491","TLE_LINE1":"1 45083U 20006AR  22052.76565409  .00001638  00000-0  12880-3 0  9991","SITE":"AFETR","RCS_SIZE":"LARGE","EPOCH":"2022-02-21T18:22:32.513376","PERIOD":"95.592","MEAN_MOTION":"15.06404416","MEAN_ELEMENT_THEORY":"SGP4","INCLINATION":"53.0551","FILE":"3312023","RA_OF_ASC_NODE":"76.7969","MEAN_MOTION_DOT":"0.00001638","COUNTRY_CODE":"US","CENTER_NAME":"EARTH","TLE_LINE2":"2 45083  53.0551  76.7969 0001481  59.3491 300.7644 15.06404416113853"},{"INCLINATION":"53.0559","FILE":"3312023","MEAN_ELEMENT_THEORY":"SGP4","RA_OF_ASC_NODE":"35.9782","MEAN_MOTION_DOT":"-0.00000865","TLE_LINE2":"2 45084  53.0559  35.9782 0001882  68.2009 291.9180 15.06395933114446","COUNTRY_CODE":"US","CENTER_NAME":"EARTH","RCS_SIZE":"LARGE","EPOCH":"2022-02-21T22:42:37.869696","PERIOD":"95.592","MEAN_MOTION":"15.06395933","OBJECT_TYPE":"PAYLOAD","REF_FRAME":"TEME","PERIAPSIS":"545.923","MEAN_MOTION_DDOT":"0.0000000000000","ECCENTRICITY":"0.00018820","EPHEMERIS_TYPE":"0","APOAPSIS":"548.529","NORAD_CAT_ID":"45084","DECAY_DATE":null,"BSTAR":"-0.00003917300000","CLASSIFICATION_TYPE":"U","SITE":"AFETR","TLE_LINE1":"1 45084U 20006AS  22052.94627164 -.00000865  00000-0 -39173-4 0  9997","ARG_OF_PERICENTER":"68.2009","MEAN_ANOMALY":"291.9180","SEMIMAJOR_AXIS":"6925.361","OBJECT_ID":"2020-006AS","TIME_SYSTEM":"UTC","LAUNCH_DATE":"2020-01-29","REV_AT_EPOCH":"11444","OBJECT_NAME":"STARLINK-1173","ELEMENT_SET_NO":"999","GP_ID":"196570458"},{"MEAN_MOTION_DDOT":"0.0000000000000","ECCENTRICITY":"0.00016570","REF_FRAME":"TEME","OBJECT_TYPE":"PAYLOAD","PERIAPSIS":"546.058","TLE_LINE1":"1 45085U 20006AT  22052.94258520  .00004903  00000-0  34779-3 0  9995","SITE":"AFETR","ARG_OF_PERICENTER":"60.4868","EPHEMERIS_TYPE":"0","APOAPSIS":"548.353","NORAD_CAT_ID":"45085","DECAY_DATE":null,"CLASSIFICATION_TYPE":"U","BSTAR":"0.00034779000000","LAUNCH_DATE":"2020-01-29","OBJECT_NAME":"STARLINK-1179","REV_AT_EPOCH":"11444","ELEMENT_SET_NO":"999","MEAN_ANOMALY":"299.6287","SEMIMAJOR_AXIS":"6925.341","TIME_SYSTEM":"UTC","OBJECT_ID":"2020-006AT","GP_ID":"196570713","RA_OF_ASC_NODE":"35.9825","MEAN_MOTION_DOT":"0.00004903","INCLINATION":"53.0550","FILE":"3312023","MEAN_ELEMENT_THEORY":"SGP4","TLE_LINE2":"2 45085  53.0550  35.9825 0001657  60.4868 299.6287 15.06402607114443","CENTER_NAME":"EARTH","COUNTRY_CODE":"US","RCS_SIZE":"LARGE","EPOCH":"2022-02-21T22:37:19.361280","PERIOD":"95.592","MEAN_MOTION":"15.06402607"},{"TLE_LINE1":"1 45086U 20006AU  22052.63520112  .00010417  00000-0  63832-3 0  9990","SITE":"AFETR","ARG_OF_PERICENTER":"93.7310","EPHEMERIS_TYPE":"0","APOAPSIS":"535.528","CLASSIFICATION_TYPE":"U","BSTAR":"0.00063832000000","DECAY_DATE":null,"NORAD_CAT_ID":"45086","MEAN_MOTION_DDOT":"0.0000000000000","ECCENTRICITY":"0.00021270","OBJECT_TYPE":"PAYLOAD","REF_FRAME":"TEME","PERIAPSIS":"532.588","GP_ID":"196569460","OBJECT_NAME":"STARLINK-1181","REV_AT_EPOCH":"11434","LAUNCH_DATE":"2020-01-29","ELEMENT_SET_NO":"999","MEAN_ANOMALY":"266.3923","TIME_SYSTEM":"UTC","OBJECT_ID":"2020-006AU","SEMIMAJOR_AXIS":"6912.193","TLE_LINE2":"2 45086  53.0030  33.1934 0002127  93.7310 266.3923 15.10702583114340","CENTER_NAME":"EARTH","COUNTRY_CODE":"US","MEAN_MOTION_DOT":"0.00010417","RA_OF_ASC_NODE":"33.1934","FILE":"3312023","INCLINATION":"53.0030","MEAN_ELEMENT_THEORY":"SGP4","MEAN_MOTION":"15.10702583","EPOCH":"2022-02-21T15:14:41.376768","PERIOD":"95.320","RCS_SIZE":"LARGE"},{"MEAN_MOTION":"15.06396345","EPOCH":"2022-02-21T15:53:54.831552","PERIOD":"95.592","RCS_SIZE":"LARGE","TLE_LINE2":"2 45087  53.0549  37.2416 0001569  68.0750 292.0406 15.06396345114407","CENTER_NAME":"EARTH","COUNTRY_CODE":"US","FILE":"3312023","INCLINATION":"53.0549","MEAN_ELEMENT_THEORY":"SGP4","MEAN_MOTION_DOT":"0.00000459","RA_OF_ASC_NODE":"37.2416","GP_ID":"196569709","MEAN_ANOMALY":"292.0406","TIME_SYSTEM":"UTC","OBJECT_ID":"2020-006AV","SEMIMAJOR_AXIS":"6925.360","REV_AT_EPOCH":"11440","OBJECT_NAME":"STARLINK-1185","LAUNCH_DATE":"2020-01-29","ELEMENT_SET_NO":"999","APOAPSIS":"548.311","EPHEMERIS_TYPE":"0","BSTAR":"0.00004974900000","CLASSIFICATION_TYPE":"U","NORAD_CAT_ID":"45087","DECAY_DATE":null,"SITE":"AFETR","TLE_LINE1":"1 45087U 20006AV  22052.66244018  .00000459  00000-0  49749-4 0  9999","ARG_OF_PERICENTER":"68.0750","OBJECT_TYPE":"PAYLOAD","REF_FRAME":"TEME","PERIAPSIS":"546.138","MEAN_MOTION_DDOT":"0.0000000000000","ECCENTRICITY":"0.00015690"},{"ELEMENT_SET_NO":"999","LAUNCH_DATE":"2020-01-29","REV_AT_EPOCH":"11440","OBJECT_NAME":"STARLINK-1183","SEMIMAJOR_AXIS":"6925.337","TIME_SYSTEM":"UTC","OBJECT_ID":"2020-006AW","MEAN_ANOMALY":"293.7271","GP_ID":"196570959","ECCENTRICITY":"0.00016590","MEAN_MOTION_DDOT":"0.0000000000000","PERIAPSIS":"546.053","OBJECT_TYPE":"PAYLOAD","REF_FRAME":"TEME","ARG_OF_PERICENTER":"66.3892","TLE_LINE1":"1 45088U 20006AW  22052.68455932  .00002012  00000-0  15390-3 0  9992","SITE":"AFETR","NORAD_CAT_ID":"45088","DECAY_DATE":null,"BSTAR":"0.00015390000000","CLASSIFICATION_TYPE":"U","EPHEMERIS_TYPE":"0","APOAPSIS":"548.351","RCS_SIZE":"LARGE","EPOCH":"2022-02-21T16:25:45.925248","PERIOD":"95.592","MEAN_MOTION":"15.06403739","RA_OF_ASC_NODE":"37.1635","MEAN_MOTION_DOT":"0.00002012","MEAN_ELEMENT_THEORY":"SGP4","INCLINATION":"53.0560","FILE":"3312023","CENTER_NAME":"EARTH","COUNTRY_CODE":"US","TLE_LINE2":"2 45088  53.0560  37.1635 0001659  66.3892 293.7271 15.06403739114405"},{"TLE_LINE2":"2 45089  53.0598  35.9450 0001542  70.9270 289.1886 15.06397380114450","CENTER_NAME":"EARTH","COUNTRY_CODE":"US","INCLINATION":"53.0598","FILE":"3312023","MEAN_ELEMENT_THEORY":"SGP4","RA_OF_ASC_NODE":"35.9450","MEAN_MOTION_DOT":"0.00001341","EPOCH":"2022-02-21T22:46:35.105952","PERIOD":"95.592","MEAN_MOTION":"15.06397380","RCS_SIZE":"LARGE","APOAPSIS":"548.289","EPHEMERIS_TYPE":"0","NORAD_CAT_ID":"45089","DECAY_DATE":null,"BSTAR":"0.00010892000000","CLASSIFICATION_TYPE":"U","TLE_LINE1":"1 45089U 20006AX  22052.94901743  .00001341  00000-0  10892-3 0  9994","SITE":"AFETR","ARG_OF_PERICENTER":"70.9270","OBJECT_TYPE":"PAYLOAD","REF_FRAME":"TEME","PERIAPSIS":"546.154","MEAN_MOTION_DDOT":"0.0000000000000","ECCENTRICITY":"0.00015420","GP_ID":"196571214","MEAN_ANOMALY":"289.1886","SEMIMAJOR_AXIS":"6925.357","TIME_SYSTEM":"UTC","OBJECT_ID":"2020-006AX","LAUNCH_DATE":"2020-01-29","REV_AT_EPOCH":"11445","OBJECT_NAME":"STARLINK-1136","ELEMENT_SET_NO":"999"},{"GP_ID":"196569961","ELEMENT_SET_NO":"999","LAUNCH_DATE":"2020-01-29","OBJECT_NAME":"STARLINK-1176","REV_AT_EPOCH":"11444","SEMIMAJOR_AXIS":"6925.347","OBJECT_ID":"2020-006AY","TIME_SYSTEM":"UTC","MEAN_ANOMALY":"293.9846","ARG_OF_PERICENTER":"66.1321","TLE_LINE1":"1 45090U 20006AY  22052.93521174 -.00000979  00000-0 -46803-4 0  9991","SITE":"AFETR","DECAY_DATE":null,"NORAD_CAT_ID":"45090","BSTAR":"-0.00004680300000","CLASSIFICATION_TYPE":"U","APOAPSIS":"548.387","EPHEMERIS_TYPE":"0","ECCENTRICITY":"0.00016960","MEAN_MOTION_DDOT":"0.0000000000000","PERIAPSIS":"546.038","REF_FRAME":"TEME","OBJECT_TYPE":"PAYLOAD","EPOCH":"2022-02-21T22:26:42.294336","PERIOD":"95.592","MEAN_MOTION":"15.06400389","RCS_SIZE":"LARGE","COUNTRY_CODE":"US","CENTER_NAME":"EARTH","TLE_LINE2":"2 45090  53.0556  36.0259 0001696  66.1321 293.9846 15.06400389114441","RA_OF_ASC_NODE":"36.0259","MEAN_MOTION_DOT":"-0.00000979","MEAN_ELEMENT_THEORY":"SGP4","INCLINATION":"53.0556","FILE":"3312023"},{"GP_ID":"196570210","MEAN_ANOMALY":"292.7666","SEMIMAJOR_AXIS":"6925.384","OBJECT_ID":"2020-006BA","TIME_SYSTEM":"UTC","LAUNCH_DATE":"2020-01-29","REV_AT_EPOCH":"11439","OBJECT_NAME":"STARLINK-1137","ELEMENT_SET_NO":"999","EPHEMERIS_TYPE":"0","APOAPSIS":"548.451","NORAD_CAT_ID":"45092","DECAY_DATE":null,"BSTAR":"0.00019356000000","CLASSIFICATION_TYPE":"U","TLE_LINE1":"1 45092U 20006BA  22052.64402628  .00002602  00000-0  19356-3 0  9998","SITE":"AFETR","ARG_OF_PERICENTER":"67.3507","REF_FRAME":"TEME","OBJECT_TYPE":"PAYLOAD","PERIAPSIS":"546.048","MEAN_MOTION_DDOT":"0.0000000000000","ECCENTRICITY":"0.00017350","EPOCH":"2022-02-21T15:27:23.870592","PERIOD":"95.593","MEAN_MOTION":"15.06388316","RCS_SIZE":"LARGE","TLE_LINE2":"2 45092  53.0559  37.3413 0001735  67.3507 292.7666 15.06388316114391","COUNTRY_CODE":"US","CENTER_NAME":"EARTH","INCLINATION":"53.0559","FILE":"3312023","MEAN_ELEMENT_THEORY":"SGP4","RA_OF_ASC_NODE":"37.3413","MEAN_MOTION_DOT":"0.00002602"}];
